SL-16 R/B               
1 25400U 98043G   26064.10081705  .00000077  00000+0  51303-4 0  9994
2 25400  98.8248  17.4320 0010426  33.0701 327.1128 14.26048416438337
SL-16 R/B               
1 25407U 98045B   26063.48759336 -.00000174  00000+0 -63820-4 0  9992
2 25407  71.0113 192.5126 0006434  15.8870 344.2454 14.16189328426365
ISS (ZARYA)             
1 25544U 98067A   26063.86671769  .00009014  00000+0  17477-3 0  9999
2 25544  51.6315  96.2009 0008177 157.5272 202.6076 15.48447334555585
CZ-4B R/B               
1 25732U 99025C   26064.15175645  .00000079  00000+0  59119-4 0  9990
2 25732  98.6636 108.5407 0036999 359.7385  68.5947 14.18264374387524
OKEAN-O                 
1 25860U 99039A   26064.12320564  .00000857  00000+0  11926-3 0  9993
2 25860  97.9451 124.0609 0001402  70.5511 289.5852 14.80326672433712
SL-16 R/B               
1 25861U 99039B   26064.10737194  .00000750  00000+0  10192-3 0  9999
2 25861  97.9975 123.2107 0013447 272.5336  87.4338 14.81724056436186
DELTA 2 R/B             
1 25876U 99041E   26064.12341007  .00001599  00000+0  29502-3 0  9991
2 25876  51.7642 319.5187 0502347 334.9571  22.7733 14.11822682362383
HELIOS 1B               
1 25977U 99064A   26064.14021918  .00002811  00000+0  31518-3 0  9994
2 25977  98.1700 326.2498 0002557  80.8858 279.2647 14.87676228684586
TERRA                   
1 25994U 99068A   26064.12027985  .00000581  00000+0  12758-3 0  9992
2 25994  97.9601 117.7294 0002422 162.4462 225.2697 14.61008973394412
SL-16 R/B               
1 26070U 00006B   26064.13753086  .00000143  00000+0  96969-4 0  9992
2 26070  71.0012 107.4098 0017106 196.5361 163.5206 14.15825161347914
TITAN 4B R/B            
1 26474U 00047B   26064.12467150  .00005441  00000+0  34101-3 0  9993
2 26474  67.9889  53.3458 0038136  40.7822 319.6170 15.09508046392227
ENVISAT                 
1 27386U 02009A   26063.80883890  .00000191  00000+0  75827-4 0  9991
2 27386  98.3720  17.5226 0001333  84.5011 308.0371 14.39034859258473
