CCSDS_OMM_VERS = 2.0
CREATION_DATE  = 
ORIGINATOR     = 

OBJECT_NAME    = SL-16 R/B
OBJECT_ID      = 1998-043G
CENTER_NAME    = EARTH
REF_FRAME      = TEME
TIME_SYSTEM    = UTC
MEAN_ELEMENT_THEORY = SGP/SGP4

EPOCH          = 2026-03-05T02:25:10.593120
MEAN_MOTION    = 14.26048416
ECCENTRICITY   = .0010426
INCLINATION    = 98.8248
RA_OF_ASC_NODE = 17.4320
ARG_OF_PERICENTER = 33.0701
MEAN_ANOMALY   = 327.1128

EPHEMERIS_TYPE = 0
CLASSIFICATION_TYPE = U
NORAD_CAT_ID   = 25400
ELEMENT_SET_NO = 999
REV_AT_EPOCH   = 43833
BSTAR          = .51303E-4
MEAN_MOTION_DOT = .77E-6
MEAN_MOTION_DDOT = 0

CCSDS_OMM_VERS = 2.0
CREATION_DATE  = 
ORIGINATOR     = 

OBJECT_NAME    = SL-16 R/B
OBJECT_ID      = 1998-045B
CENTER_NAME    = EARTH
REF_FRAME      = TEME
TIME_SYSTEM    = UTC
MEAN_ELEMENT_THEORY = SGP/SGP4

EPOCH          = 2026-03-04T11:42:08.066304
MEAN_MOTION    = 14.16189328
ECCENTRICITY   = .00064343
INCLINATION    = 71.0113
RA_OF_ASC_NODE = 192.5126
ARG_OF_PERICENTER = 15.8870
MEAN_ANOMALY   = 344.2454

EPHEMERIS_TYPE = 0
CLASSIFICATION_TYPE = U
NORAD_CAT_ID   = 25407
ELEMENT_SET_NO = 999
REV_AT_EPOCH   = 42636
BSTAR          = -.63820258E-4
MEAN_MOTION_DOT = -.174E-5
MEAN_MOTION_DDOT = 0

CCSDS_OMM_VERS = 2.0
CREATION_DATE  = 
ORIGINATOR     = 

OBJECT_NAME    = ISS (ZARYA)
OBJECT_ID      = 1998-067A
CENTER_NAME    = EARTH
REF_FRAME      = TEME
TIME_SYSTEM    = UTC
MEAN_ELEMENT_THEORY = SGP/SGP4

EPOCH          = 2026-03-04T20:48:04.408416
MEAN_MOTION    = 15.48447334
ECCENTRICITY   = .0008177
INCLINATION    = 51.6315
RA_OF_ASC_NODE = 96.2009
ARG_OF_PERICENTER = 157.5272
MEAN_ANOMALY   = 202.6076

EPHEMERIS_TYPE = 0
CLASSIFICATION_TYPE = U
NORAD_CAT_ID   = 25544
ELEMENT_SET_NO = 999
REV_AT_EPOCH   = 55558
BSTAR          = .17477E-3
MEAN_MOTION_DOT = .9014E-4
MEAN_MOTION_DDOT = 0

CCSDS_OMM_VERS = 2.0
CREATION_DATE  = 
ORIGINATOR     = 

OBJECT_NAME    = CZ-4B R/B
OBJECT_ID      = 1999-025C
CENTER_NAME    = EARTH
REF_FRAME      = TEME
TIME_SYSTEM    = UTC
MEAN_ELEMENT_THEORY = SGP/SGP4

EPOCH          = 2026-03-05T03:38:31.757280
MEAN_MOTION    = 14.18264374
ECCENTRICITY   = .0036999
INCLINATION    = 98.6636
RA_OF_ASC_NODE = 108.5407
ARG_OF_PERICENTER = 359.7385
MEAN_ANOMALY   = 68.5947

EPHEMERIS_TYPE = 0
CLASSIFICATION_TYPE = U
NORAD_CAT_ID   = 25732
ELEMENT_SET_NO = 999
REV_AT_EPOCH   = 38752
BSTAR          = .59119E-4
MEAN_MOTION_DOT = .79E-6
MEAN_MOTION_DDOT = 0

CCSDS_OMM_VERS = 2.0
CREATION_DATE  = 
ORIGINATOR     = 

OBJECT_NAME    = OKEAN-O
OBJECT_ID      = 1999-039A
CENTER_NAME    = EARTH
REF_FRAME      = TEME
TIME_SYSTEM    = UTC
MEAN_ELEMENT_THEORY = SGP/SGP4

EPOCH          = 2026-03-05T02:57:24.967296
MEAN_MOTION    = 14.80326672
ECCENTRICITY   = .0001402
INCLINATION    = 97.9451
RA_OF_ASC_NODE = 124.0609
ARG_OF_PERICENTER = 70.5511
MEAN_ANOMALY   = 289.5852

EPHEMERIS_TYPE = 0
CLASSIFICATION_TYPE = U
NORAD_CAT_ID   = 25860
ELEMENT_SET_NO = 999
REV_AT_EPOCH   = 43371
BSTAR          = .11926E-3
MEAN_MOTION_DOT = .857E-5
MEAN_MOTION_DDOT = 0

CCSDS_OMM_VERS = 2.0
CREATION_DATE  = 
ORIGINATOR     = 

OBJECT_NAME    = SL-16 R/B
OBJECT_ID      = 1999-039B
CENTER_NAME    = EARTH
REF_FRAME      = TEME
TIME_SYSTEM    = UTC
MEAN_ELEMENT_THEORY = SGP/SGP4

EPOCH          = 2026-03-05T02:34:36.935616
MEAN_MOTION    = 14.81724056
ECCENTRICITY   = .0013447
INCLINATION    = 97.9975
RA_OF_ASC_NODE = 123.2107
ARG_OF_PERICENTER = 272.5336
MEAN_ANOMALY   = 87.4338

EPHEMERIS_TYPE = 0
CLASSIFICATION_TYPE = U
NORAD_CAT_ID   = 25861
ELEMENT_SET_NO = 999
REV_AT_EPOCH   = 43618
BSTAR          = .10192E-3
MEAN_MOTION_DOT = .75E-5
MEAN_MOTION_DDOT = 0

CCSDS_OMM_VERS = 2.0
CREATION_DATE  = 
ORIGINATOR     = 

OBJECT_NAME    = DELTA 2 R/B
OBJECT_ID      = 1999-041E
CENTER_NAME    = EARTH
REF_FRAME      = TEME
TIME_SYSTEM    = UTC
MEAN_ELEMENT_THEORY = SGP/SGP4

EPOCH          = 2026-03-05T02:57:42.630048
MEAN_MOTION    = 14.11822682
ECCENTRICITY   = .0502347
INCLINATION    = 51.7642
RA_OF_ASC_NODE = 319.5187
ARG_OF_PERICENTER = 334.9571
MEAN_ANOMALY   = 22.7733

EPHEMERIS_TYPE = 0
CLASSIFICATION_TYPE = U
NORAD_CAT_ID   = 25876
ELEMENT_SET_NO = 999
REV_AT_EPOCH   = 36238
BSTAR          = .29502E-3
MEAN_MOTION_DOT = .1599E-4
MEAN_MOTION_DDOT = 0

CCSDS_OMM_VERS = 2.0
CREATION_DATE  = 
ORIGINATOR     = 

OBJECT_NAME    = HELIOS 1B
OBJECT_ID      = 1999-064A
CENTER_NAME    = EARTH
REF_FRAME      = TEME
TIME_SYSTEM    = UTC
MEAN_ELEMENT_THEORY = SGP/SGP4

EPOCH          = 2026-03-05T03:21:54.937152
MEAN_MOTION    = 14.87676228
ECCENTRICITY   = .0002557
INCLINATION    = 98.1700
RA_OF_ASC_NODE = 326.2498
ARG_OF_PERICENTER = 80.8858
MEAN_ANOMALY   = 279.2647

EPHEMERIS_TYPE = 0
CLASSIFICATION_TYPE = U
NORAD_CAT_ID   = 25977
ELEMENT_SET_NO = 999
REV_AT_EPOCH   = 68458
BSTAR          = .31518E-3
MEAN_MOTION_DOT = .2811E-4
MEAN_MOTION_DDOT = 0

CCSDS_OMM_VERS = 2.0
CREATION_DATE  = 
ORIGINATOR     = 

OBJECT_NAME    = TERRA
OBJECT_ID      = 1999-068A
CENTER_NAME    = EARTH
REF_FRAME      = TEME
TIME_SYSTEM    = UTC
MEAN_ELEMENT_THEORY = SGP/SGP4

EPOCH          = 2026-03-05T02:53:12.179040
MEAN_MOTION    = 14.61008973
ECCENTRICITY   = .0002422
INCLINATION    = 97.9601
RA_OF_ASC_NODE = 117.7294
ARG_OF_PERICENTER = 162.4462
MEAN_ANOMALY   = 225.2697

EPHEMERIS_TYPE = 0
CLASSIFICATION_TYPE = U
NORAD_CAT_ID   = 25994
ELEMENT_SET_NO = 999
REV_AT_EPOCH   = 39441
BSTAR          = .12758E-3
MEAN_MOTION_DOT = .581E-5
MEAN_MOTION_DDOT = 0

CCSDS_OMM_VERS = 2.0
CREATION_DATE  = 
ORIGINATOR     = 

OBJECT_NAME    = SL-16 R/B
OBJECT_ID      = 2000-006B
CENTER_NAME    = EARTH
REF_FRAME      = TEME
TIME_SYSTEM    = UTC
MEAN_ELEMENT_THEORY = SGP/SGP4

EPOCH          = 2026-03-05T03:18:02.666304
MEAN_MOTION    = 14.15825161
ECCENTRICITY   = .0017106
INCLINATION    = 71.0012
RA_OF_ASC_NODE = 107.4098
ARG_OF_PERICENTER = 196.5361
MEAN_ANOMALY   = 163.5206

EPHEMERIS_TYPE = 0
CLASSIFICATION_TYPE = U
NORAD_CAT_ID   = 26070
ELEMENT_SET_NO = 999
REV_AT_EPOCH   = 34791
BSTAR          = .96969E-4
MEAN_MOTION_DOT = .143E-5
MEAN_MOTION_DDOT = 0

CCSDS_OMM_VERS = 2.0
CREATION_DATE  = 
ORIGINATOR     = 

OBJECT_NAME    = TITAN 4B R/B
OBJECT_ID      = 2000-047B
CENTER_NAME    = EARTH
REF_FRAME      = TEME
TIME_SYSTEM    = UTC
MEAN_ELEMENT_THEORY = SGP/SGP4

EPOCH          = 2026-03-05T02:59:31.617600
MEAN_MOTION    = 15.09508046
ECCENTRICITY   = .0038136
INCLINATION    = 67.9889
RA_OF_ASC_NODE = 53.3458
ARG_OF_PERICENTER = 40.7822
MEAN_ANOMALY   = 319.6170

EPHEMERIS_TYPE = 0
CLASSIFICATION_TYPE = U
NORAD_CAT_ID   = 26474
ELEMENT_SET_NO = 999
REV_AT_EPOCH   = 39222
BSTAR          = .34101E-3
MEAN_MOTION_DOT = .5441E-4
MEAN_MOTION_DDOT = 0

CCSDS_OMM_VERS = 2.0
CREATION_DATE  = 
ORIGINATOR     = 

OBJECT_NAME    = ENVISAT
OBJECT_ID      = 2002-009A
CENTER_NAME    = EARTH
REF_FRAME      = TEME
TIME_SYSTEM    = UTC
MEAN_ELEMENT_THEORY = SGP/SGP4

EPOCH          = 2026-03-04T19:24:43.680960
MEAN_MOTION    = 14.39034859
ECCENTRICITY   = .0001333
INCLINATION    = 98.3720
RA_OF_ASC_NODE = 17.5226
ARG_OF_PERICENTER = 84.5011
MEAN_ANOMALY   = 308.0371

EPHEMERIS_TYPE = 0
CLASSIFICATION_TYPE = U
NORAD_CAT_ID   = 27386
ELEMENT_SET_NO = 999
REV_AT_EPOCH   = 25847
BSTAR          = .75827E-4
MEAN_MOTION_DOT = .191E-5
MEAN_MOTION_DDOT = 0

